STARLINK-5589           
1 57334U 23099G   25241.22931842 -.00003181  00000+0 -22047-3 0  9992
2 57334  43.0028 214.9125 0001027 281.3155  78.7572 15.02537641117166
STARLINK-6316           
1 57335U 23099H   25240.95231074 -.00000530  00000+0 -24192-4 0  9991
2 57335  43.0026 216.2798 0001172 270.0421  90.0287 15.02532423117127
STARLINK-6320           
1 57336U 23099J   25240.98881687 -.00000732  00000+0 -39094-4 0  9997
2 57336  43.0015 215.6745 0001027 279.2962  80.7764 15.02534805117134
STARLINK-6322           
1 57337U 23099K   25241.22598589  .00000469  00000+0  49822-4 0  9997
2 57337  43.0031 214.8863 0001248 267.6077  92.4623 15.02533808117167
STARLINK-6374           
1 57338U 23099L   25241.22154646 -.00000280  00000+0 -56439-5 0  9996
2 57338  43.0021 214.8534 0001943 281.4772  78.5852 15.02537245117168
STARLINK-6332           
1 57339U 23099M   25241.22821039 -.00000627  00000+0 -31358-4 0  9991
2 57339  43.0015 214.9024 0000985 271.8235  88.2495 15.02531842117167
STARLINK-6321           
1 57340U 23099N   25240.94342708 -.00000010  00000+0  14361-4 0  9992
2 57340  43.0021 216.2071 0001132 272.3371  87.7342 15.02533698117127
STARLINK-6377           
1 57341U 23099P   25241.28136179 -.00000334  00000+0 -96752-5 0  9999
2 57341  43.0012 214.4418 0001045 273.1737  86.8985 15.02540603117173
STARLINK-6375           
1 57342U 23099Q   25241.19268980  .00000393  00000+0  44160-4 0  9994
2 57342  43.0028 214.6361 0001244 279.8853  80.1848 15.02535799117167
STARLINK-6379           
1 57343U 23099R   25241.27803635 -.00000427  00000+0 -16543-4 0  9990
2 57343  43.0025 214.4150 0001243 274.4699  85.6001 15.02534581117177
STARLINK-6380           
1 57344U 23099S   25241.20267932 -.00000131  00000+0  53725-5 0  9993
2 57344  43.0020 214.7089 0001088 268.7423  91.3295 15.02533950117162
STARLINK-6373           
1 57345U 23099T   25241.20600674  .00000062  00000+0  19657-4 0  9995
2 57345  43.0036 214.7360 0001445 269.8774  90.1903 15.02534746117167
STARLINK-6359           
1 57346U 23099U   25240.98659628 -.00000199  00000+0  32451-6 0  9994
2 57346  43.0013 215.6646 0001248 276.4049  83.6652 15.02535379117138
STARLINK-6378           
1 57347U 23099V   25241.19823858  .00000046  00000+0  18443-4 0  9990
2 57347  43.0020 214.6769 0001084 272.1296  87.9423 15.02535150117160
STARLINK-6372           
1 57348U 23099W   25240.31626703  .00000041  00000+0  18107-4 0  9996
2 57348  43.0025 219.2402 0001265 275.4753  84.5945 15.02533804117038
STARLINK-6376           
1 57349U 23099X   25240.98326519  .00000026  00000+0  17007-4 0  9993
2 57349  43.0031 215.6470 0001375 272.2940  87.7745 15.02534142117855
