[{"OBJECT_NAME":"STARLINK-5589","OBJECT_ID":"2023-099G","EPOCH":"2025-08-29T05:30:13.111488","MEAN_MOTION":15.02537641,"ECCENTRICITY":0.00010272,"INCLINATION":43.0028,"RA_OF_ASC_NODE":214.9125,"ARG_OF_PERICENTER":281.3155,"MEAN_ANOMALY":78.7572,"EPHEMERIS_TYPE":0,"CLASSIFICATION_TYPE":"U","NORAD_CAT_ID":57334,"ELEMENT_SET_NO":999,"REV_AT_EPOCH":11716,"BSTAR":-0.00022047315,"MEAN_MOTION_DOT":-3.181e-5,"MEAN_MOTION_DDOT":0},{"OBJECT_NAME":"STARLINK-6316","OBJECT_ID":"2023-099H","EPOCH":"2025-08-28T22:51:19.647936","MEAN_MOTION":15.02532423,"ECCENTRICITY":0.00011723,"INCLINATION":43.0026,"RA_OF_ASC_NODE":216.2798,"ARG_OF_PERICENTER":270.0421,"MEAN_ANOMALY":90.0287,"EPHEMERIS_TYPE":0,"CLASSIFICATION_TYPE":"U","NORAD_CAT_ID":57335,"ELEMENT_SET_NO":999,"REV_AT_EPOCH":11712,"BSTAR":-2.4191569e-5,"MEAN_MOTION_DOT":-5.3e-6,"MEAN_MOTION_DDOT":0},{"OBJECT_NAME":"STARLINK-6320","OBJECT_ID":"2023-099J","EPOCH":"2025-08-28T23:43:53.777568","MEAN_MOTION":15.02534805,"ECCENTRICITY":0.00010275,"INCLINATION":43.0015,"RA_OF_ASC_NODE":215.6745,"ARG_OF_PERICENTER":279.2962,"MEAN_ANOMALY":80.7764,"EPHEMERIS_TYPE":0,"CLASSIFICATION_TYPE":"U","NORAD_CAT_ID":57336,"ELEMENT_SET_NO":999,"REV_AT_EPOCH":11713,"BSTAR":-3.9094293e-5,"MEAN_MOTION_DOT":-7.32e-6,"MEAN_MOTION_DDOT":0},{"OBJECT_NAME":"STARLINK-6322","OBJECT_ID":"2023-099K","EPOCH":"2025-08-29T05:25:25.180896","MEAN_MOTION":15.02533808,"ECCENTRICITY":0.0001248,"INCLINATION":43.0031,"RA_OF_ASC_NODE":214.8863,"ARG_OF_PERICENTER":267.6077,"MEAN_ANOMALY":92.4623,"EPHEMERIS_TYPE":0,"CLASSIFICATION_TYPE":"U","NORAD_CAT_ID":57337,"ELEMENT_SET_NO":999,"REV_AT_EPOCH":11716,"BSTAR":4.9821875e-5,"MEAN_MOTION_DOT":4.69e-6,"MEAN_MOTION_DDOT":0},{"OBJECT_NAME":"STARLINK-6374","OBJECT_ID":"2023-099L","EPOCH":"2025-08-29T05:19:01.614144","MEAN_MOTION":15.02537245,"ECCENTRICITY":0.00019431,"INCLINATION":43.0021,"RA_OF_ASC_NODE":214.8534,"ARG_OF_PERICENTER":281.4772,"MEAN_ANOMALY":78.5852,"EPHEMERIS_TYPE":0,"CLASSIFICATION_TYPE":"U","NORAD_CAT_ID":57338,"ELEMENT_SET_NO":999,"REV_AT_EPOCH":11716,"BSTAR":-5.643919e-6,"MEAN_MOTION_DOT":-2.8e-6,"MEAN_MOTION_DDOT":0},{"OBJECT_NAME":"STARLINK-6332","OBJECT_ID":"2023-099M","EPOCH":"2025-08-29T05:28:37.377696","MEAN_MOTION":15.02531842,"ECCENTRICITY":9.852e-5,"INCLINATION":43.0015,"RA_OF_ASC_NODE":214.9024,"ARG_OF_PERICENTER":271.8235,"MEAN_ANOMALY":88.2495,"EPHEMERIS_TYPE":0,"CLASSIFICATION_TYPE":"U","NORAD_CAT_ID":57339,"ELEMENT_SET_NO":999,"REV_AT_EPOCH":11716,"BSTAR":-3.1357513e-5,"MEAN_MOTION_DOT":-6.27e-6,"MEAN_MOTION_DDOT":0},{"OBJECT_NAME":"STARLINK-6321","OBJECT_ID":"2023-099N","EPOCH":"2025-08-28T22:38:32.099712","MEAN_MOTION":15.02533698,"ECCENTRICITY":0.00011323,"INCLINATION":43.0021,"RA_OF_ASC_NODE":216.2071,"ARG_OF_PERICENTER":272.3371,"MEAN_ANOMALY":87.7342,"EPHEMERIS_TYPE":0,"CLASSIFICATION_TYPE":"U","NORAD_CAT_ID":57340,"ELEMENT_SET_NO":999,"REV_AT_EPOCH":11712,"BSTAR":1.4361252e-5,"MEAN_MOTION_DOT":-1.0e-7,"MEAN_MOTION_DDOT":0},{"OBJECT_NAME":"STARLINK-6377","OBJECT_ID":"2023-099P","EPOCH":"2025-08-29T06:45:09.658656","MEAN_MOTION":15.02540603,"ECCENTRICITY":0.00010457,"INCLINATION":43.0012,"RA_OF_ASC_NODE":214.4418,"ARG_OF_PERICENTER":273.1737,"MEAN_ANOMALY":86.8985,"EPHEMERIS_TYPE":0,"CLASSIFICATION_TYPE":"U","NORAD_CAT_ID":57341,"ELEMENT_SET_NO":999,"REV_AT_EPOCH":11717,"BSTAR":-9.675216e-6,"MEAN_MOTION_DOT":-3.34e-6,"MEAN_MOTION_DDOT":0},{"OBJECT_NAME":"STARLINK-6375","OBJECT_ID":"2023-099Q","EPOCH":"2025-08-29T04:37:28.398720","MEAN_MOTION":15.02535799,"ECCENTRICITY":0.00012441,"INCLINATION":43.0028,"RA_OF_ASC_NODE":214.6361,"ARG_OF_PERICENTER":279.8853,"MEAN_ANOMALY":80.1848,"EPHEMERIS_TYPE":0,"CLASSIFICATION_TYPE":"U","NORAD_CAT_ID":57342,"ELEMENT_SET_NO":999,"REV_AT_EPOCH":11716,"BSTAR":4.4159622e-5,"MEAN_MOTION_DOT":3.93e-6,"MEAN_MOTION_DDOT":0},{"OBJECT_NAME":"STARLINK-6379","OBJECT_ID":"2023-099R","EPOCH":"2025-08-29T06:40:22.340640","MEAN_MOTION":15.02534581,"ECCENTRICITY":0.00012439,"INCLINATION":43.0025,"RA_OF_ASC_NODE":214.415,"ARG_OF_PERICENTER":274.4699,"MEAN_ANOMALY":85.6001,"EPHEMERIS_TYPE":0,"CLASSIFICATION_TYPE":"U","NORAD_CAT_ID":57343,"ELEMENT_SET_NO":999,"REV_AT_EPOCH":11717,"BSTAR":-1.6542506e-5,"MEAN_MOTION_DOT":-4.27e-6,"MEAN_MOTION_DDOT":0},{"OBJECT_NAME":"STARLINK-6380","OBJECT_ID":"2023-099S","EPOCH":"2025-08-29T04:51:51.493248","MEAN_MOTION":15.0253395,"ECCENTRICITY":0.00010886,"INCLINATION":43.002,"RA_OF_ASC_NODE":214.7089,"ARG_OF_PERICENTER":268.7423,"MEAN_ANOMALY":91.3295,"EPHEMERIS_TYPE":0,"CLASSIFICATION_TYPE":"U","NORAD_CAT_ID":57344,"ELEMENT_SET_NO":999,"REV_AT_EPOCH":11716,"BSTAR":5.372531e-6,"MEAN_MOTION_DOT":-1.31e-6,"MEAN_MOTION_DDOT":0},{"OBJECT_NAME":"STARLINK-6373","OBJECT_ID":"2023-099T","EPOCH":"2025-08-29T04:56:38.982336","MEAN_MOTION":15.02534746,"ECCENTRICITY":0.00014455,"INCLINATION":43.0036,"RA_OF_ASC_NODE":214.736,"ARG_OF_PERICENTER":269.8774,"MEAN_ANOMALY":90.1903,"EPHEMERIS_TYPE":0,"CLASSIFICATION_TYPE":"U","NORAD_CAT_ID":57345,"ELEMENT_SET_NO":999,"REV_AT_EPOCH":11716,"BSTAR":1.9656613e-5,"MEAN_MOTION_DOT":6.2e-7,"MEAN_MOTION_DDOT":0},{"OBJECT_NAME":"STARLINK-6359","OBJECT_ID":"2023-099U","EPOCH":"2025-08-28T23:40:41.918592","MEAN_MOTION":15.02535379,"ECCENTRICITY":0.00012488,"INCLINATION":43.0013,"RA_OF_ASC_NODE":215.6646,"ARG_OF_PERICENTER":276.4049,"MEAN_ANOMALY":83.6652,"EPHEMERIS_TYPE":0,"CLASSIFICATION_TYPE":"U","NORAD_CAT_ID":57346,"ELEMENT_SET_NO":999,"REV_AT_EPOCH":11713,"BSTAR":3.24506e-7,"MEAN_MOTION_DOT":-1.99e-6,"MEAN_MOTION_DDOT":0},{"OBJECT_NAME":"STARLINK-6378","OBJECT_ID":"2023-099V","EPOCH":"2025-08-29T04:45:27.813312","MEAN_MOTION":15.0253515,"ECCENTRICITY":0.00010842,"INCLINATION":43.002,"RA_OF_ASC_NODE":214.6769,"ARG_OF_PERICENTER":272.1296,"MEAN_ANOMALY":87.9423,"EPHEMERIS_TYPE":0,"CLASSIFICATION_TYPE":"U","NORAD_CAT_ID":57347,"ELEMENT_SET_NO":999,"REV_AT_EPOCH":11716,"BSTAR":1.8443227e-5,"MEAN_MOTION_DOT":4.6e-7,"MEAN_MOTION_DDOT":0},{"OBJECT_NAME":"STARLINK-6372","OBJECT_ID":"2023-099W","EPOCH":"2025-08-28T07:35:25.471392","MEAN_MOTION":15.02533804,"ECCENTRICITY":0.00012651,"INCLINATION":43.0025,"RA_OF_ASC_NODE":219.2402,"ARG_OF_PERICENTER":275.4753,"MEAN_ANOMALY":84.5945,"EPHEMERIS_TYPE":0,"CLASSIFICATION_TYPE":"U","NORAD_CAT_ID":57348,"ELEMENT_SET_NO":999,"REV_AT_EPOCH":11703,"BSTAR":1.8106624e-5,"MEAN_MOTION_DOT":4.1e-7,"MEAN_MOTION_DDOT":0},{"OBJECT_NAME":"STARLINK-6376","OBJECT_ID":"2023-099X","EPOCH":"2025-08-28T23:35:54.112416","MEAN_MOTION":15.02534142,"ECCENTRICITY":0.00013758,"INCLINATION":43.0031,"RA_OF_ASC_NODE":215.647,"ARG_OF_PERICENTER":272.294,"MEAN_ANOMALY":87.7745,"EPHEMERIS_TYPE":0,"CLASSIFICATION_TYPE":"U","NORAD_CAT_ID":57349,"ELEMENT_SET_NO":999,"REV_AT_EPOCH":11785,"BSTAR":1.700713e-5,"MEAN_MOTION_DOT":2.6e-7,"MEAN_MOTION_DDOT":0}]
